OBJECT_NAME,OBJECT_ID,EPOCH,MEAN_MOTION,ECCENTRICITY,INCLINATION,RA_OF_ASC_NODE,ARG_OF_PERICENTER,MEAN_ANOMALY,EPHEMERIS_TYPE,CLASSIFICATION_TYPE,NORAD_CAT_ID,ELEMENT_SET_NO,REV_AT_EPOCH,BSTAR,MEAN_MOTION_DOT,MEAN_MOTION_DDOT
SAUDISAT 1C (SO-50),2002-058C,2026-07-17T23:18:35.552448,14.83101410,.00744416,64.5519,33.7353,256.7655,102.5140,0,U,27607,999,26902,.61896608E-4,.371E-5,0
SAUDISAT 2,2004-025F,2026-07-18T06:46:42.886848,14.56699177,.00242552,98.5522,200.0700,198.5050,161.5267,0,U,28371,999,17027,.30715577E-4,.88E-6,0
SAUDISAT 3,2007-012B,2026-07-18T03:09:23.569920,14.71441140,.0015739,98.1468,149.5552,125.9637,234.3032,0,U,31118,999,3229,.23819572E-4,.97E-6,0
PISAT,2016-059B,2026-07-17T23:59:46.702176,14.69032459,.00305189,97.8192,198.1308,106.2658,254.1909,0,U,41784,999,52426,.80861907E-4,.43E-5,0
FLYING LAPTOP,2017-042G,2026-07-18T07:30:09.294048,15.01324411,.00195417,97.4823,353.6768,22.5475,337.6604,0,U,42831,999,49112,.13679009E-3,.1709E-4,0
SALSAT,2020-068K,2026-07-18T00:21:03.770208,15.30195257,.00094957,97.8861,203.9671,182.8082,177.3106,0,U,46495,999,32007,.14176866E-3,.4061E-4,0
