SAUDISAT 1C (SO-50)     
1 27607U 02058C   26198.97124482  .00000371  00000+0  61897-4 0  9995
2 27607  64.5519  33.7353 0074441 256.7655 102.5140 14.83101410269029
SAUDISAT 2              
1 28371U 04025F   26199.28244082  .00000088  00000+0  30716-4 0  9995
2 28371  98.5522 200.0700 0024255 198.5050 161.5267 14.56699177170279
SAUDISAT 3              
1 31118U 07012B   26199.13152280  .00000097  00000+0  23820-4 0  9997
2 31118  98.1468 149.5552 0015739 125.9637 234.3032 14.71441140 32291
PISAT                   
1 41784U 16059B   26198.99984609  .00000430  00000+0  80862-4 0  9999
2 41784  97.8192 198.1308 0030518 106.2658 254.1909 14.69032459524269
FLYING LAPTOP           
1 42831U 17042G   26199.31260757  .00001709  00000+0  13679-3 0  9995
2 42831  97.4823 353.6768 0019541  22.5475 337.6604 15.01324411491124
SALSAT                  
1 46495U 20068K   26199.01462697  .00004061  00000+0  14177-3 0  9999
2 46495  97.8861 203.9671 0009495 182.8082 177.3106 15.30195257320078
